LEMUR-2-GREENBERG       
1 42837U 17042N   26068.46200528  .00019778  00000+0  72539-3 0  9997
2 42837  97.3781 249.8007 0009157   4.0119 356.1192 15.27971352473146
STARLINK-1570           
1 46059U 20055AJ  26068.51642000  .00003570  00000+0  13254-3 0  9998
2 46059  53.1603 114.7149 0001540 115.7829 244.3331 15.30212858309001
